{
  "type": "FeatureCollection",
  "features": [
    {
      "type": "Feature",
      "properties": {
        "norad_id": 22490,
        "name": "SCD 1",
        "group": "resource",
        "lat": -21.167080745426635,
        "lon": 123.1339114820386,
        "alt_km": 762.1845647227501,
        "timestamp": "2025-12-17T21:39:45.365077+00:00",
        "meta_object_name": "SCD 1",
        "meta_object_id": "1993-009B",
        "meta_epoch": "2025-12-17T09:42:49.057344",
        "meta_mean_motion": 14.46002371,
        "meta_eccentricity": 0.00419998,
        "meta_inclination": 24.9688,
        "meta_ra_of_asc_node": 249.8901,
        "meta_arg_of_pericenter": 14.4582,
        "meta_mean_anomaly": 147.67,
        "meta_ephemeris_type": 0,
        "meta_classification_type": "U",
        "meta_norad_cat_id": 22490,
        "meta_element_set_no": 999,
        "meta_rev_at_epoch": 73477,
        "meta_bstar": 7.8463198e-05,
        "meta_mean_motion_dot": 4.72e-06,
        "meta_mean_motion_ddot": 0,
        "tle_line1": "1 22490U 93009B   25351.40473446  .00000472  00000+0  78463-4 0  9990",
        "tle_line2": "2 22490  24.9688 249.8901 0041999  14.4582 147.6700 14.46002371734776"
      },
      "geometry": {
        "type": "Point",
        "coordinates": [
          123.1339114820386,
          -21.167080745426635
        ]
      }
    },
    {
      "type": "Feature",
      "properties": {
        "norad_id": 25397,
        "name": "TECHSAT 1B (GO-32)",
        "group": "resource",
        "lat": -11.790246836383732,
        "lon": -22.871956163871154,
        "alt_km": 814.2113287056736,
        "timestamp": "2025-12-17T21:39:45.365114+00:00",
        "meta_object_name": "TECHSAT 1B (GO-32)",
        "meta_object_id": "1998-043D",
        "meta_epoch": "2025-12-17T13:17:20.568192",
        "meta_mean_motion": 14.24378479,
        "meta_eccentricity": 0.00019235,
        "meta_inclination": 98.9923,
        "meta_ra_of_asc_node": 334.877,
        "meta_arg_of_pericenter": 49.549,
        "meta_mean_anomaly": 310.5855,
        "meta_ephemeris_type": 0,
        "meta_classification_type": "U",
        "meta_norad_cat_id": 25397,
        "meta_element_set_no": 999,
        "meta_rev_at_epoch": 42547,
        "meta_bstar": 5.2315154e-05,
        "meta_mean_motion_dot": 7.4e-07,
        "meta_mean_motion_ddot": 0,
        "tle_line1": "1 25397U 98043D   25351.55371028  .00000074  00000+0  52315-4 0  9997",
        "tle_line2": "2 25397  98.9923 334.8770 0001923  49.5490 310.5855 14.24378479425474"
      },
      "geometry": {
        "type": "Point",
        "coordinates": [
          -22.871956163871154,
          -11.790246836383732
        ]
      }
    },
    {
      "type": "Feature",
      "properties": {
        "norad_id": 25504,
        "name": "SCD 2",
        "group": "resource",
        "lat": -24.59400996680034,
        "lon": 9.314202156252174,
        "alt_km": 744.9338542864689,
        "timestamp": "2025-12-17T21:39:45.365127+00:00",
        "meta_object_name": "SCD 2",
        "meta_object_id": "1998-060A",
        "meta_epoch": "2025-12-17T15:35:50.466624",
        "meta_mean_motion": 14.45426055,
        "meta_eccentricity": 0.00168517,
        "meta_inclination": 24.9942,
        "meta_ra_of_asc_node": 111.6188,
        "meta_arg_of_pericenter": 5.6852,
        "meta_mean_anomaly": 17.0271,
        "meta_ephemeris_type": 0,
        "meta_classification_type": "U",
        "meta_norad_cat_id": 25504,
        "meta_element_set_no": 999,
        "meta_rev_at_epoch": 43403,
        "meta_bstar": 5.8702746e-05,
        "meta_mean_motion_dot": 3.92e-06,
        "meta_mean_motion_ddot": 0,
        "tle_line1": "1 25504U 98060A   25351.64988966  .00000392  00000+0  58703-4 0  9991",
        "tle_line2": "2 25504  24.9942 111.6188 0016851   5.6852  17.0271 14.45426055434039"
      },
      "geometry": {
        "type": "Point",
        "coordinates": [
          9.314202156252174,
          -24.59400996680034
        ]
      }
    },
    {
      "type": "Feature",
      "properties": {
        "norad_id": 25757,
        "name": "DLR-TUBSAT",
        "group": "resource",
        "lat": 5.517826358639527,
        "lon": -24.267465816720218,
        "alt_km": 730.1217005310627,
        "timestamp": "2025-12-17T21:39:45.365138+00:00",
        "meta_object_name": "DLR-TUBSAT",
        "meta_object_id": "1999-029B",
        "meta_epoch": "2025-12-17T13:22:10.787520",
        "meta_mean_motion": 14.52359578,
        "meta_eccentricity": 0.00141996,
        "meta_inclination": 98.6566,
        "meta_ra_of_asc_node": 336.2196,
        "meta_arg_of_pericenter": 177.8976,
        "meta_mean_anomaly": 182.2281,
        "meta_ephemeris_type": 0,
        "meta_classification_type": "U",
        "meta_norad_cat_id": 25757,
        "meta_element_set_no": 999,
        "meta_rev_at_epoch": 40688,
        "meta_bstar": 3.7650132e-05,
        "meta_mean_motion_dot": 1.05e-06,
        "meta_mean_motion_ddot": 0,
        "tle_line1": "1 25757U 99029B   25351.55706930  .00000105  00000+0  37650-4 0  9996",
        "tle_line2": "2 25757  98.6566 336.2196 0014199 177.8976 182.2281 14.52359578406886"
      },
      "geometry": {
        "type": "Point",
        "coordinates": [
          -24.267465816720218,
          5.517826358639527
        ]
      }
    },
    {
      "type": "Feature",
      "properties": {
        "norad_id": 25994,
        "name": "TERRA",
        "group": "resource",
        "lat": -46.76273067286221,
        "lon": -145.17598615566615,
        "alt_km": 699.0648866449183,
        "timestamp": "2025-12-17T21:39:45.365149+00:00",
        "meta_object_name": "TERRA",
        "meta_object_id": "1999-068A",
        "meta_epoch": "2025-12-17T14:47:06.904032",
        "meta_mean_motion": 14.60907456,
        "meta_eccentricity": 0.00035802,
        "meta_inclination": 97.9743,
        "meta_ra_of_asc_node": 43.1215,
        "meta_arg_of_pericenter": 85.0056,
        "meta_mean_anomaly": 76.0683,
        "meta_ephemeris_type": 0,
        "meta_classification_type": "U",
        "meta_norad_cat_id": 25994,
        "meta_element_set_no": 999,
        "meta_rev_at_epoch": 38309,
        "meta_bstar": 9.3061721e-05,
        "meta_mean_motion_dot": 4.11e-06,
        "meta_mean_motion_ddot": 0,
        "tle_line1": "1 25994U 99068A   25351.61605213  .00000411  00000+0  93062-4 0  9990",
        "tle_line2": "2 25994  97.9743  43.1215 0003580  85.0056  76.0683 14.60907456383091"
      },
      "geometry": {
        "type": "Point",
        "coordinates": [
          -145.17598615566615,
          -46.76273067286221
        ]
      }
    },
    {
      "type": "Feature",
      "properties": {
        "norad_id": 27004,
        "name": "MAROC-TUBSAT",
        "group": "resource",
        "lat": -25.365737645247087,
        "lon": 165.13353110818846,
        "alt_km": 1003.5909110556713,
        "timestamp": "2025-12-17T21:39:45.365160+00:00",
        "meta_object_name": "MAROC-TUBSAT",
        "meta_object_id": "2001-056D",
        "meta_epoch": "2025-12-17T11:34:53.154624",
        "meta_mean_motion": 13.70253185,
        "meta_eccentricity": 0.00191365,
        "meta_inclination": 99.7912,
        "meta_ra_of_asc_node": 160.0105,
        "meta_arg_of_pericenter": 247.4964,
        "meta_mean_anomaly": 175.6362,
        "meta_ephemeris_type": 0,
        "meta_classification_type": "U",
        "meta_norad_cat_id": 27004,
        "meta_element_set_no": 999,
        "meta_rev_at_epoch": 20130,
        "meta_bstar": 3.0798804e-05,
        "meta_mean_motion_dot": -2e-07,
        "meta_mean_motion_ddot": 0,
        "tle_line1": "1 27004U 01056D   25351.48255966 -.00000020  00000+0  30799-4 0  9990",
        "tle_line2": "2 27004  99.7912 160.0105 0019136 247.4964 175.6362 13.70253185201302"
      },
      "geometry": {
        "type": "Point",
        "coordinates": [
          165.13353110818846,
          -25.365737645247087
        ]
      }
    },
    {
      "type": "Feature",
      "properties": {
        "norad_id": 27424,
        "name": "AQUA",
        "group": "resource",
        "lat": 59.45718144576124,
        "lon": 147.37596113732928,
        "alt_km": 680.6359644758404,
        "timestamp": "2025-12-17T21:39:45.365171+00:00",
        "meta_object_name": "AQUA",
        "meta_object_id": "2002-022A",
        "meta_epoch": "2025-12-17T15:20:20.387904",
        "meta_mean_motion": 14.6182048,
        "meta_eccentricity": 0.00012743,
        "meta_inclination": 98.4042,
        "meta_ra_of_asc_node": 312.5979,
        "meta_arg_of_pericenter": 113.5364,
        "meta_mean_anomaly": 60.1013,
        "meta_ephemeris_type": 0,
        "meta_classification_type": "U",
        "meta_norad_cat_id": 27424,
        "meta_element_set_no": 999,
        "meta_rev_at_epoch": 25674,
        "meta_bstar": 0.00018278223,
        "meta_mean_motion_dot": 8.64e-06,
        "meta_mean_motion_ddot": 0,
        "tle_line1": "1 27424U 02022A   25351.63912486  .00000864  00000+0  18278-3 0  9996",
        "tle_line2": "2 27424  98.4042 312.5979 0001274 113.5364  60.1013 14.61820480256740"
      },
      "geometry": {
        "type": "Point",
        "coordinates": [
          147.37596113732928,
          59.45718144576124
        ]
      }
    }
  ]
}